KUIPER-00428            
1 69593U 26140B   26192.57981780  .00012780  00000+0  35857-3 0  9998
2 69593  51.8815 280.9549 0007939  17.6830 342.4432 15.36900769  4981
KUIPER-00481            
1 69594U 26140C   26192.55493876  .00016414  00000+0  44157-3 0  9992
2 69594  51.8794 280.7878 0011355 264.2787  95.6906 15.37955078  4986
KUIPER-00490            
1 69595U 26140D   26192.23967140  .00020958  00000+0  56190-3 0  9996
2 69595  51.8769 282.4202 0006864 327.5188  32.5376 15.37919900  4936
KUIPER-00493            
1 69596U 26140E   26192.58445372  .00009281  00000+0  26585-3 0  9994
2 69596  51.8814 280.9850 0007728  25.8406 334.2965 15.36617305  4985
KUIPER-00496            
1 69597U 26140F   26192.47285532  .00012293  00000+0  37385-3 0  9990
2 69597  51.8792 281.7272 0009940  35.8564 324.3087 15.34382192  4966
KUIPER-00513            
1 69598U 26140G   26192.49680269  .00017859  00000+0  47758-3 0  9997
2 69598  51.8827 281.1562 0008154 328.7915  31.2587 15.38104537  4971
KUIPER-00516            
1 69599U 26140H   26192.56874462  .00018532  00000+0  50394-3 0  9995
2 69599  51.8805 280.8808 0006756 340.1512  19.9211 15.37566768  4989
KUIPER-00517            
1 69600U 26140J   26192.54814944  .00007900  00000+0  21270-3 0  9993
2 69600  51.8777 280.7427 0010508 277.9717  82.0077 15.38762147  4981
KUIPER-00520            
1 69601U 26140K   26192.56974160  .00022180  00000+0  59962-3 0  9999
2 69601  51.8837 280.8967 0006614 342.1971  17.8783 15.37628570  4989
KUIPER-00522            
1 69602U 26140L   26192.47956345  .00017490  00000+0  45974-3 0  9991
2 69602  51.8800 281.0380 0013384 249.8642 110.0905 15.38597501  4973
KUIPER-00528            
1 69603U 26140M   26192.50707241  .00013985  00000+0  38458-3 0  9999
2 69603  51.8778 281.2089 0005116 343.9191  16.1633 15.37455088  4971
KUIPER-00532            
1 69604U 26140N   26192.58122974  .00009791  00000+0  28023-3 0  9999
2 69604  51.8806 280.9595 0006268  19.3337 340.7886 15.36578796  4985
KUIPER-00533            
1 69605U 26140P   26192.55808564 -.00133268  00000+0 -35574-2 0  9990
2 69605  51.8797 280.8100 0007554 324.5636  35.4848 15.37994592  4981
KUIPER-00534            
1 69606U 26140Q   26192.47462228  .00011202  00000+0  29781-3 0  9990
2 69606  51.8818 281.0115 0013388 252.9579 106.9941 15.38662919  4970
KUIPER-00537            
1 69607U 26140R   26192.59971490  .00011929  00000+0  36403-3 0  9995
2 69607  51.8811 281.0851 0011006  42.8840 317.3002 15.34296234  4989
KUIPER-00538            
1 69608U 26140S   26192.56746151  .00009936  00000+0  27440-3 0  9993
2 69608  51.8820 280.8775 0006729 330.6202  29.4406 15.37679500  4981
KUIPER-00540            
1 69609U 26140T   26192.57758183  .00012977  00000+0  36378-3 0  9992
2 69609  51.8830 280.9443 0006626  10.8065 349.3063 15.36919037  4980
KUIPER-00541            
1 69610U 26140U   26191.90842681  .00013847  00000+0  36978-3 0  9990
2 69610  51.8827 283.9683 0008333 308.1236  51.8999 15.38356975  4887
KUIPER-00542            
1 69611U 26140V   26192.55655432  .00014210  00000+0  38071-3 0  9990
2 69611  51.8812 280.8032 0007911 300.8666  59.1543 15.38234454  4987
KUIPER-00543            
1 69612U 26140W   26192.77693313  .00025967  00000+0  71788-3 0  9998
2 69612  51.8774 280.0144 0008151  22.6917 337.4428 15.36828687  5010
KUIPER-00544            
1 69613U 26140X   26192.49579654  .00017604  00000+0  47072-3 0  9997
2 69613  51.8799 281.1405 0006516 305.8745  54.1636 15.38126834  4973
KUIPER-00546            
1 69614U 26140Y   26192.54029358  .00009228  00000+0  24596-3 0  9994
2 69614  51.8783 280.6956 0014260 250.2493 109.6957 15.38810193  4981
KUIPER-00547            
1 69615U 26140Z   26192.55432916  .00009924  00000+0  27228-3 0  9992
2 69615  51.8825 280.7952 0010866 277.5828  82.3925 15.37855649  4984
KUIPER-00549            
1 69616U 26140AA  26192.50837900  .00010152  00000+0  28361-3 0  9994
2 69616  51.8810 281.2228 0007937   2.2674 357.8347 15.37288332  4974
KUIPER-00550            
1 69617U 26140AB  26192.28430661  .00013605  00000+0  43294-3 0  9991
2 69617  51.8779 282.7098 0008094  47.3338 312.8327 15.32851397  4939
KUIPER-00551            
1 69618U 26140AC  26192.54709762  .00014799  00000+0  39373-3 0  9990
2 69618  51.8777 280.7418 0012517 254.9847 104.9755 15.38371575  4989
KUIPER-00554            
1 69619U 26140AD  26192.48764123  .00014472  00000+0  39109-3 0  9991
2 69619  51.8774 281.0869 0011336 276.6495  83.3201 15.37920416  4977
KUIPER-00555            
1 69620U 26140AE  26192.54923036  .02508038  00000+0  52259-1 0  9997
2 69620  51.8814 280.7627 0030046 285.5243  74.2428 15.41047562  4989
KUIPER-00556            
1 69621U 26140AF  26191.89993434  .00016169  00000+0  43068-3 0  9991
2 69621  51.8809 283.9056 0012047 253.3320 106.6344 15.38267241  4885
KUIPER-00557            
1 69622U 26140AG  26192.49247853  .00012516  00000+0  34424-3 0  9994
2 69622  51.8807 281.1278 0009913 288.6863  71.3047 15.37527254  4971
